KUIPER-00079            
1 64826U 25151L   25302.85791525  .00004862  00000+0  66544-3 0  9991
2 64826  51.8984 158.8095 0012310 162.3095 197.8298 14.79958471 17133
KUIPER-00080            
1 64827U 25151M   25302.85340483  .00003749  00000+0  52099-3 0  9998
2 64827  51.8986 159.1315 0005592 179.0445 181.0529 14.79900216 15935
KUIPER-00082            
1 64828U 25151N   25303.33335648 -.00016400  00000+0 -21022-2 0  9991
2 64828  51.9008 144.5185 0005427 189.4903 315.7620 14.80418103  3505
KUIPER-00083            
1 64829U 25151P   25302.89254338  .00004896  00000+0  67042-3 0  9995
2 64829  51.8986 153.9648 0010765 167.1068 193.0171 14.79936886 17193
KUIPER-00084            
1 64830U 25151Q   25302.61170185  .00000425  00000+0  85107-4 0  9991
2 64830  51.8986 165.1923 0011998 140.7140 219.4695 14.79929632 15826
KUIPER-00085            
1 64831U 25151R   25303.33335648  .00005696  00000+0  77801-3 0  9995
2 64831  51.9016 144.5194 0007669 172.7293 157.0556 14.79793189  5656
KUIPER-00086            
1 64832U 25151S   25302.85625262  .00003949  00000+0  54683-3 0  9998
2 64832  51.9011 156.6269 0011433 161.8303 198.3070 14.79907465 15962
KUIPER-00087            
1 64833U 25151T   25303.33335648 -.01010295  00000+0 -74162-1 0  9996
2 64833  51.8890 138.7407 0003731 199.1335 274.9776 15.05769857  3167
